{"type": "FeatureCollection", "features": [ {"type": "Feature", "properties": {"norad_id": 66911, "name": "1998-067XX", "group": "stations", "lat": -15.491676837389349, "lon": 138.4007860073522, "alt_km": 417.5806342101996, "timestamp": "2025-12-10T23:33:11.640746+00:00", "meta": {"OBJECT_NAME": "1998-067XX", "OBJECT_ID": "1998-067XX", "EPOCH": "2025-12-09T02:48:25.040736", "MEAN_MOTION": 15.51276485, "ECCENTRICITY": 0.00057034, "INCLINATION": 51.6296, "RA_OF_ASC_NODE": 160.3494, "ARG_OF_PERICENTER": 191.2268, "MEAN_ANOMALY": 168.8595, "EPHEMERIS_TYPE": 0, "CLASSIFICATION_TYPE": "U", "NORAD_CAT_ID": 66911, "ELEMENT_SET_NO": 999, "REV_AT_EPOCH": 104, "BSTAR": 0.0014245982, "MEAN_MOTION_DOT": 0.00085582, "MEAN_MOTION_DDOT": 0}, "tle": {"line1": "1 66911U 98067XX  25343.11695649  .00085582  00000+0  14246-2 0  9997", "line2": "2 66911  51.6296 160.3494 0005703 191.2268 168.8595 15.51276485  1046"}}, "geometry": {"type": "Point", "coordinates": [138.4007860073522, -15.491676837389349]}}, {"type": "Feature", "properties": {"norad_id": 66912, "name": "1998-067XY", "group": "stations", "lat": -27.59891490975395, "lon": 126.6564540032485, "alt_km": 418.7864103355532, "timestamp": "2025-12-10T23:33:11.640755+00:00", "meta": {"OBJECT_NAME": "1998-067XY", "OBJECT_ID": "1998-067XY", "EPOCH": "2025-12-10T12:53:00.237984", "MEAN_MOTION": 15.50813363, "ECCENTRICITY": 0.00047702, "INCLINATION": 51.6309, "RA_OF_ASC_NODE": 153.3305, "ARG_OF_PERICENTER": 212.0937, "MEAN_ANOMALY": 147.9763, "EPHEMERIS_TYPE": 0, "CLASSIFICATION_TYPE": "U", "NORAD_CAT_ID": 66912, "ELEMENT_SET_NO": 999, "REV_AT_EPOCH": 126, "BSTAR": 0.0011701261, "MEAN_MOTION_DOT": 0.00068898, "MEAN_MOTION_DDOT": 0}, "tle": {"line1": "1 66912U 98067XY  25344.53680831  .00068898  00000+0  11701-2 0  9996", "line2": "2 66912  51.6309 153.3305 0004770 212.0937 147.9763 15.50813363  1263"}}, "geometry": {"type": "Point", "coordinates": [126.6564540032485, -27.59891490975395]}}]}